ONEWEB-0332             
1 49279U 21090A   24104.01614729  .00000261  00000+0  67047-3 0  9999
2 49279  87.8907  87.9552 0001572  84.0312 276.0997 13.14503519123111
ONEWEB-0347             
1 49280U 21090B   24103.97717430 -.00000015  00000+0 -69516-4 0  9991
2 49280  87.9168  72.6779 0001516  79.0939 281.0364 13.20769730126070
ONEWEB-0349             
1 49281U 21090C   24103.93298082  .00000113  00000+0  24655-3 0  9996
2 49281  87.9169  72.6854 0002257  86.4660 273.6731 13.20770619126143
ONEWEB-0353             
1 49282U 21090D   24104.00820427  .00000107  00000+0  25415-3 0  9998
2 49282  87.8906  87.9413 0001625  84.8747 275.2568 13.14504785124403
ONEWEB-0356             
1 49283U 21090E   24104.00716418  .00000058  00000+0  10994-3 0  9994
2 49283  87.9168  72.6659 0002477  62.7409 297.3976 13.20773984126152
ONEWEB-0358             
1 49284U 21090F   24103.96139273 -.00000030  00000+0 -10528-3 0  9992
2 49284  87.9170  72.6609 0002297  81.8027 278.3367 13.20773165126872
ONEWEB-0359             
1 49285U 21090G   24103.95823266 -.00000020  00000+0 -82108-4 0  9997
2 49285  87.9167  72.6809 0002402  93.7413 266.3995 13.20773107125565
ONEWEB-0360             
1 49286U 21090H   24103.94877319  .00000072  00000+0  14478-3 0  9994
2 49286  87.9167  72.6874 0002069  87.5076 272.6294 13.20770017124875
